[
  {
    "COMMENT": "GENERATED VIA SPACETRACK.ORG API",
    "ORIGINATOR": "18 SPCS",
    "NORAD_CAT_ID": "36508",
    "OBJECT_NAME": "CRYOSAT 2",
    "OBJECT_TYPE": "PAYLOAD",
    "CLASSIFICATION_TYPE": "U",
    "INTLDES": "10013A",
    "EPOCH": "2023-05-11 17:25:23",
    "EPOCH_MICROSECONDS": "803680",
    "MEAN_MOTION": "14.51911016",
    "ECCENTRICITY": "0.0003331",
    "INCLINATION": "92.0238",
    "RA_OF_ASC_NODE": "3.6024",
    "ARG_OF_PERICENTER": "174.3431",
    "MEAN_ANOMALY": "185.7815",
    "EPHEMERIS_TYPE": "0",
    "ELEMENT_SET_NO": "999",
    "REV_AT_EPOCH": "69376",
    "BSTAR": "0.000075863",
    "MEAN_MOTION_DOT": "0.00000309",
    "MEAN_MOTION_DDOT": "0",
    "FILE": "3905576",
    "TLE_LINE0": "0 CRYOSAT 2",
    "TLE_LINE1": "1 36508U 10013A   23131.72596995  .00000309  00000-0  75863-4 0  9994",
    "TLE_LINE2": "2 36508  92.0238   3.6024 0003331 174.3431 185.7815 14.51911016693761",
    "OBJECT_ID": "2010-013A",
    "OBJECT_NUMBER": "36508",
    "SEMIMAJOR_AXIS": "7097.551",
    "PERIOD": "99.180",
    "APOGEE": "721.780",
    "PERIGEE": "717.052",
    "DECAYED": "0"
  },
  {
    "COMMENT": "GENERATED VIA SPACETRACK.ORG API",
    "ORIGINATOR": "18 SPCS",
    "NORAD_CAT_ID": "36508",
    "OBJECT_NAME": "CRYOSAT 2",
    "OBJECT_TYPE": "PAYLOAD",
    "CLASSIFICATION_TYPE": "U",
    "INTLDES": "10013A",
    "EPOCH": "2023-05-12 13:16:20",
    "EPOCH_MICROSECONDS": "270496",
    "MEAN_MOTION": "14.51900034",
    "ECCENTRICITY": "0.0003394",
    "INCLINATION": "92.0237",
    "RA_OF_ASC_NODE": "3.8021",
    "ARG_OF_PERICENTER": "171.1702",
    "MEAN_ANOMALY": "188.9566",
    "EPHEMERIS_TYPE": "0",
    "ELEMENT_SET_NO": "999",
    "REV_AT_EPOCH": "69388",
    "BSTAR": "0.000078253",
    "MEAN_MOTION_DOT": "0.00000318",
    "MEAN_MOTION_DDOT": "0",
    "FILE": "3905921",
    "TLE_LINE0": "0 CRYOSAT 2",
    "TLE_LINE1": "1 36508U 10013A   23132.55301239  .00000318  00000-0  78253-4 0  9997",
    "TLE_LINE2": "2 36508  92.0237   3.8021 0003394 171.1702 188.9566 14.51900034693883",
    "OBJECT_ID": "2010-013A",
    "OBJECT_NUMBER": "36508",
    "SEMIMAJOR_AXIS": "7097.587",
    "PERIOD": "99.180",
    "APOGEE": "721.860",
    "PERIGEE": "717.043",
    "DECAYED": "0"
  },
  {
    "COMMENT": "GENERATED VIA SPACETRACK.ORG API",
    "ORIGINATOR": "18 SPCS",
    "NORAD_CAT_ID": "36508",
    "OBJECT_NAME": "CRYOSAT 2",
    "OBJECT_TYPE": "PAYLOAD",
    "CLASSIFICATION_TYPE": "U",
    "INTLDES": "10013A",
    "EPOCH": "2023-05-12 21:32:33",
    "EPOCH_MICROSECONDS": "792576",
    "MEAN_MOTION": "14.51900043",
    "ECCENTRICITY": "0.0003459",
    "INCLINATION": "92.0237",
    "RA_OF_ASC_NODE": "3.8854",
    "ARG_OF_PERICENTER": "170.151",
    "MEAN_ANOMALY": "189.9765",
    "EPHEMERIS_TYPE": "0",
    "ELEMENT_SET_NO": "999",
    "REV_AT_EPOCH": "69393",
    "BSTAR": "0.000040413",
    "MEAN_MOTION_DOT": "0.00000166",
    "MEAN_MOTION_DDOT": "0",
    "FILE": "3906381",
    "TLE_LINE0": "0 CRYOSAT 2",
    "TLE_LINE1": "1 36508U 10013A   23132.89761334  .00000166  00000-0  40413-4 0  9998",
    "TLE_LINE2": "2 36508  92.0237   3.8854 0003459 170.1510 189.9765 14.51900043693933",
    "OBJECT_ID": "2010-013A",
    "OBJECT_NUMBER": "36508",
    "SEMIMAJOR_AXIS": "7097.587",
    "PERIOD": "99.180",
    "APOGEE": "721.907",
    "PERIGEE": "716.996",
    "DECAYED": "0"
  },
  {
    "COMMENT": "GENERATED VIA SPACETRACK.ORG API",
    "ORIGINATOR": "18 SPCS",
    "NORAD_CAT_ID": "36508",
    "OBJECT_NAME": "CRYOSAT 2",
    "OBJECT_TYPE": "PAYLOAD",
    "CLASSIFICATION_TYPE": "U",
    "INTLDES": "10013A",
    "EPOCH": "2023-05-12 23:11:48",
    "EPOCH_MICROSECONDS": "496992",
    "MEAN_MOTION": "14.51900087",
    "ECCENTRICITY": "0.000347",
    "INCLINATION": "92.0237",
    "RA_OF_ASC_NODE": "3.902",
    "ARG_OF_PERICENTER": "169.9383",
    "MEAN_ANOMALY": "190.1895",
    "EPHEMERIS_TYPE": "0",
    "ELEMENT_SET_NO": "999",
    "REV_AT_EPOCH": "69398",
    "BSTAR": "0.000041142",
    "MEAN_MOTION_DOT": "0.00000169",
    "MEAN_MOTION_DDOT": "0",
    "FILE": "3906339",
    "TLE_LINE0": "0 CRYOSAT 2",
    "TLE_LINE1": "1 36508U 10013A   23132.96653353  .00000169  00000-0  41142-4 0  9990",
    "TLE_LINE2": "2 36508  92.0237   3.9020 0003470 169.9383 190.1895 14.51900087693987",
    "OBJECT_ID": "2010-013A",
    "OBJECT_NUMBER": "36508",
    "SEMIMAJOR_AXIS": "7097.586",
    "PERIOD": "99.180",
    "APOGEE": "721.914",
    "PERIGEE": "716.989",
    "DECAYED": "0"
  },
  {
    "COMMENT": "GENERATED VIA SPACETRACK.ORG API",
    "ORIGINATOR": "18 SPCS",
    "NORAD_CAT_ID": "36508",
    "OBJECT_NAME": "CRYOSAT 2",
    "OBJECT_TYPE": "PAYLOAD",
    "CLASSIFICATION_TYPE": "U",
    "INTLDES": "10013A",
    "EPOCH": "2023-05-13 14:05:00",
    "EPOCH_MICROSECONDS": "828096",
    "MEAN_MOTION": "14.51900265",
    "ECCENTRICITY": "0.0003553",
    "INCLINATION": "92.0236",
    "RA_OF_ASC_NODE": "4.0518",
    "ARG_OF_PERICENTER": "168.0569",
    "MEAN_ANOMALY": "192.0723",
    "EPHEMERIS_TYPE": "0",
    "ELEMENT_SET_NO": "999",
    "REV_AT_EPOCH": "69403",
    "BSTAR": "0.000037771",
    "MEAN_MOTION_DOT": "0.00000155",
    "MEAN_MOTION_DDOT": "0",
    "FILE": "3906915",
    "TLE_LINE0": "0 CRYOSAT 2",
    "TLE_LINE1": "1 36508U 10013A   23133.58681514  .00000155  00000-0  37771-4 0  9997",
    "TLE_LINE2": "2 36508  92.0236   4.0518 0003553 168.0569 192.0723 14.51900265694034",
    "OBJECT_ID": "2010-013A",
    "OBJECT_NUMBER": "36508",
    "SEMIMAJOR_AXIS": "7097.586",
    "PERIOD": "99.180",
    "APOGEE": "721.973",
    "PERIGEE": "716.929",
    "DECAYED": "0"
  },
  {
    "COMMENT": "GENERATED VIA SPACETRACK.ORG API",
    "ORIGINATOR": "18 SPCS",
    "NORAD_CAT_ID": "36508",
    "OBJECT_NAME": "CRYOSAT 2",
    "OBJECT_TYPE": "PAYLOAD",
    "CLASSIFICATION_TYPE": "U",
    "INTLDES": "10013A",
    "EPOCH": "2023-05-13 22:21:14",
    "EPOCH_MICROSECONDS": "338080",
    "MEAN_MOTION": "14.51900397",
    "ECCENTRICITY": "0.0003595",
    "INCLINATION": "92.0236",
    "RA_OF_ASC_NODE": "4.135",
    "ARG_OF_PERICENTER": "167.0509",
    "MEAN_ANOMALY": "193.0791",
    "EPHEMERIS_TYPE": "0",
    "ELEMENT_SET_NO": "999",
    "REV_AT_EPOCH": "69408",
    "BSTAR": "0.000037902",
    "MEAN_MOTION_DOT": "0.00000156",
    "MEAN_MOTION_DDOT": "0",
    "FILE": "3907148",
    "TLE_LINE0": "0 CRYOSAT 2",
    "TLE_LINE1": "1 36508U 10013A   23133.93141595  .00000156  00000-0  37902-4 0  9993",
    "TLE_LINE2": "2 36508  92.0236   4.1350 0003595 167.0509 193.0791 14.51900397694085",
    "OBJECT_ID": "2010-013A",
    "OBJECT_NUMBER": "36508",
    "SEMIMAJOR_AXIS": "7097.585",
    "PERIOD": "99.180",
    "APOGEE": "722.002",
    "PERIGEE": "716.899",
    "DECAYED": "0"
  },
  {
    "COMMENT": "GENERATED VIA SPACETRACK.ORG API",
    "ORIGINATOR": "18 SPCS",
    "NORAD_CAT_ID": "36508",
    "OBJECT_NAME": "CRYOSAT 2",
    "OBJECT_TYPE": "PAYLOAD",
    "CLASSIFICATION_TYPE": "U",
    "INTLDES": "10013A",
    "EPOCH": "2023-05-14 06:37:27",
    "EPOCH_MICROSECONDS": "840288",
    "MEAN_MOTION": "14.5190063",
    "ECCENTRICITY": "0.000364",
    "INCLINATION": "92.0235",
    "RA_OF_ASC_NODE": "4.2182",
    "ARG_OF_PERICENTER": "166.029",
    "MEAN_ANOMALY": "194.1018",
    "EPHEMERIS_TYPE": "0",
    "ELEMENT_SET_NO": "999",
    "REV_AT_EPOCH": "69417",
    "BSTAR": "0.000040332",
    "MEAN_MOTION_DOT": "0.00000165",
    "MEAN_MOTION_DDOT": "0",
    "FILE": "3907477",
    "TLE_LINE0": "0 CRYOSAT 2",
    "TLE_LINE1": "1 36508U 10013A   23134.27601667  .00000165  00000-0  40332-4 0  9993",
    "TLE_LINE2": "2 36508  92.0235   4.2182 0003640 166.0290 194.1018 14.51900630694179",
    "OBJECT_ID": "2010-013A",
    "OBJECT_NUMBER": "36508",
    "SEMIMAJOR_AXIS": "7097.585",
    "PERIOD": "99.180",
    "APOGEE": "722.033",
    "PERIGEE": "716.866",
    "DECAYED": "0"
  },
  {
    "COMMENT": "GENERATED VIA SPACETRACK.ORG API",
    "ORIGINATOR": "18 SPCS",
    "NORAD_CAT_ID": "36508",
    "OBJECT_NAME": "CRYOSAT 2",
    "OBJECT_TYPE": "PAYLOAD",
    "CLASSIFICATION_TYPE": "U",
    "INTLDES": "10013A",
    "EPOCH": "2023-05-14 13:14:26",
    "EPOCH_MICROSECONDS": "646720",
    "MEAN_MOTION": "14.51900688",
    "ECCENTRICITY": "0.0003677",
    "INCLINATION": "92.0234",
    "RA_OF_ASC_NODE": "4.2848",
    "ARG_OF_PERICENTER": "165.242",
    "MEAN_ANOMALY": "194.8895",
    "EPHEMERIS_TYPE": "0",
    "ELEMENT_SET_NO": "999",
    "REV_AT_EPOCH": "69417",
    "BSTAR": "0.000038566",
    "MEAN_MOTION_DOT": "0.00000158",
    "MEAN_MOTION_DDOT": "0",
    "FILE": "3907744",
    "TLE_LINE0": "0 CRYOSAT 2",
    "TLE_LINE1": "1 36508U 10013A   23134.55169730  .00000158  00000-0  38566-4 0  9992",
    "TLE_LINE2": "2 36508  92.0234   4.2848 0003677 165.2420 194.8895 14.51900688694176",
    "OBJECT_ID": "2010-013A",
    "OBJECT_NUMBER": "36508",
    "SEMIMAJOR_AXIS": "7097.584",
    "PERIOD": "99.180",
    "APOGEE": "722.059",
    "PERIGEE": "716.840",
    "DECAYED": "0"
  },
  {
    "COMMENT": "GENERATED VIA SPACETRACK.ORG API",
    "ORIGINATOR": "18 SPCS",
    "NORAD_CAT_ID": "36508",
    "OBJECT_NAME": "CRYOSAT 2",
    "OBJECT_TYPE": "PAYLOAD",
    "CLASSIFICATION_TYPE": "U",
    "INTLDES": "10013A",
    "EPOCH": "2023-05-14 21:30:40",
    "EPOCH_MICROSECONDS": "125600",
    "MEAN_MOTION": "14.51901171",
    "ECCENTRICITY": "0.0003742",
    "INCLINATION": "92.0235",
    "RA_OF_ASC_NODE": "4.368",
    "ARG_OF_PERICENTER": "164.2045",
    "MEAN_ANOMALY": "195.9279",
    "EPHEMERIS_TYPE": "0",
    "ELEMENT_SET_NO": "999",
    "REV_AT_EPOCH": "69422",
    "BSTAR": "0.000070363",
    "MEAN_MOTION_DOT": "0.00000286",
    "MEAN_MOTION_DDOT": "0",
    "FILE": "3908005",
    "TLE_LINE0": "0 CRYOSAT 2",
    "TLE_LINE1": "1 36508U 10013A   23134.89629775  .00000286  00000-0  70363-4 0  9992",
    "TLE_LINE2": "2 36508  92.0235   4.3680 0003742 164.2045 195.9279 14.51901171694229",
    "OBJECT_ID": "2010-013A",
    "OBJECT_NUMBER": "36508",
    "SEMIMAJOR_AXIS": "7097.583",
    "PERIOD": "99.180",
    "APOGEE": "722.104",
    "PERIGEE": "716.792",
    "DECAYED": "0"
  }
]